[{"OBJECT_NAME":"SJ-11-07","OBJECT_ID":"2014-059A","EPOCH":"2026-03-09T21:45:47.816352","MEAN_MOTION":14.63627905,"ECCENTRICITY":0.00120468,"INCLINATION":98.0026,"RA_OF_ASC_NODE":141.1257,"ARG_OF_PERICENTER":102.2482,"MEAN_ANOMALY":258.0071,"EPHEMERIS_TYPE":0,"CLASSIFICATION_TYPE":"U","NORAD_CAT_ID":40261,"ELEMENT_SET_NO":999,"REV_AT_EPOCH":61039,"BSTAR":0.00017894302,"MEAN_MOTION_DOT":8.85e-6,"MEAN_MOTION_DDOT":0},{"OBJECT_NAME":"IRIDIUM 33 DEB","OBJECT_ID":"1997-051AF","EPOCH":"2026-03-09T08:27:52.288992","MEAN_MOTION":14.71831263,"ECCENTRICITY":0.00509251,"INCLINATION":86.4129,"RA_OF_ASC_NODE":359.2718,"ARG_OF_PERICENTER":124.4308,"MEAN_ANOMALY":1.9699,"EPHEMERIS_TYPE":0,"CLASSIFICATION_TYPE":"U","NORAD_CAT_ID":33862,"ELEMENT_SET_NO":999,"REV_AT_EPOCH":90096,"BSTAR":0.002114831,"MEAN_MOTION_DOT":0.00013529,"MEAN_MOTION_DDOT":0}]
